CCSDS_OMM_VERS = 2.0
CREATION_DATE  = 
ORIGINATOR     = 

OBJECT_NAME    = UNKNOWN
OBJECT_ID      = 
CENTER_NAME    = EARTH
REF_FRAME      = TEME
TIME_SYSTEM    = UTC
MEAN_ELEMENT_THEORY = SGP/SGP4

EPOCH          = 2026-04-02T11:18:32.283936
MEAN_MOTION    = 13.93329857
ECCENTRICITY   = .0035505
INCLINATION    = 81.9382
RA_OF_ASC_NODE = 267.0129
ARG_OF_PERICENTER = 350.5360
MEAN_ANOMALY   = 39.2818

EPHEMERIS_TYPE = 0
CLASSIFICATION_TYPE = U
NORAD_CAT_ID   = 82303
ELEMENT_SET_NO = 999
REV_AT_EPOCH   = 52981
BSTAR          = .29556E-1
MEAN_MOTION_DOT = .39E-3
MEAN_MOTION_DDOT = 0

CCSDS_OMM_VERS = 2.0
CREATION_DATE  = 
ORIGINATOR     = 

OBJECT_NAME    = UNKNOWN
OBJECT_ID      = 
CENTER_NAME    = EARTH
REF_FRAME      = TEME
TIME_SYSTEM    = UTC
MEAN_ELEMENT_THEORY = SGP/SGP4

EPOCH          = 2026-04-02T09:35:12.385824
MEAN_MOTION    = 13.54695170
ECCENTRICITY   = .0107854
INCLINATION    = 99.4197
RA_OF_ASC_NODE = 146.1641
ARG_OF_PERICENTER = 29.7745
MEAN_ANOMALY   = 330.9472

EPHEMERIS_TYPE = 0
CLASSIFICATION_TYPE = U
NORAD_CAT_ID   = 82311
ELEMENT_SET_NO = 999
REV_AT_EPOCH   = 56530
BSTAR          = .93981E-3
MEAN_MOTION_DOT = .627E-5
MEAN_MOTION_DDOT = 0

CCSDS_OMM_VERS = 2.0
CREATION_DATE  = 
ORIGINATOR     = 

OBJECT_NAME    = UNKNOWN
OBJECT_ID      = 
CENTER_NAME    = EARTH
REF_FRAME      = TEME
TIME_SYSTEM    = UTC
MEAN_ELEMENT_THEORY = SGP/SGP4

EPOCH          = 2026-04-02T08:47:41.912448
MEAN_MOTION    = 13.15728719
ECCENTRICITY   = .0451353
INCLINATION    = 66.9378
RA_OF_ASC_NODE = 317.0821
ARG_OF_PERICENTER = 94.3601
MEAN_ANOMALY   = 270.9134

EPHEMERIS_TYPE = 0
CLASSIFICATION_TYPE = U
NORAD_CAT_ID   = 82363
ELEMENT_SET_NO = 999
REV_AT_EPOCH   = 30481
BSTAR          = .15056E-2
MEAN_MOTION_DOT = .895E-5
MEAN_MOTION_DDOT = 0

CCSDS_OMM_VERS = 2.0
CREATION_DATE  = 
ORIGINATOR     = 

OBJECT_NAME    = UNKNOWN
OBJECT_ID      = 
CENTER_NAME    = EARTH
REF_FRAME      = TEME
TIME_SYSTEM    = UTC
MEAN_ELEMENT_THEORY = SGP/SGP4

EPOCH          = 2026-04-02T07:21:03.743712
MEAN_MOTION    = 13.98236560
ECCENTRICITY   = .0083676
INCLINATION    = 98.8933
RA_OF_ASC_NODE = 109.0284
ARG_OF_PERICENTER = 33.9984
MEAN_ANOMALY   = 326.6502

EPHEMERIS_TYPE = 0
CLASSIFICATION_TYPE = U
NORAD_CAT_ID   = 82369
ELEMENT_SET_NO = 999
REV_AT_EPOCH   = 57262
BSTAR          = .16448E-3
MEAN_MOTION_DOT = .199E-5
MEAN_MOTION_DDOT = 0

CCSDS_OMM_VERS = 2.0
CREATION_DATE  = 
ORIGINATOR     = 

OBJECT_NAME    = UNKNOWN
OBJECT_ID      = 
CENTER_NAME    = EARTH
REF_FRAME      = TEME
TIME_SYSTEM    = UTC
MEAN_ELEMENT_THEORY = SGP/SGP4

EPOCH          = 2026-04-03T02:13:39.162432
MEAN_MOTION    = 14.87113547
ECCENTRICITY   = .0008031
INCLINATION    = 98.3892
RA_OF_ASC_NODE = 328.5696
ARG_OF_PERICENTER = 133.5860
MEAN_ANOMALY   = 226.6022

EPHEMERIS_TYPE = 0
CLASSIFICATION_TYPE = U
NORAD_CAT_ID   = 82381
ELEMENT_SET_NO = 999
REV_AT_EPOCH   = 52732
BSTAR          = .55991E-2
MEAN_MOTION_DOT = .50602E-3
MEAN_MOTION_DDOT = 0

CCSDS_OMM_VERS = 2.0
CREATION_DATE  = 
ORIGINATOR     = 

OBJECT_NAME    = UNKNOWN
OBJECT_ID      = 
CENTER_NAME    = EARTH
REF_FRAME      = TEME
TIME_SYSTEM    = UTC
MEAN_ELEMENT_THEORY = SGP/SGP4

EPOCH          = 2026-04-03T10:53:05.536320
MEAN_MOTION    = 15.05186519
ECCENTRICITY   = .0009995
INCLINATION    = 86.6581
RA_OF_ASC_NODE = 107.2723
ARG_OF_PERICENTER = 108.7035
MEAN_ANOMALY   = 251.5286

EPHEMERIS_TYPE = 0
CLASSIFICATION_TYPE = U
NORAD_CAT_ID   = 82402
ELEMENT_SET_NO = 999
REV_AT_EPOCH   = 47126
BSTAR          = .77395E-3
MEAN_MOTION_DOT = .11079E-3
MEAN_MOTION_DDOT = 0

CCSDS_OMM_VERS = 2.0
CREATION_DATE  = 
ORIGINATOR     = 

OBJECT_NAME    = UNKNOWN
OBJECT_ID      = 
CENTER_NAME    = EARTH
REF_FRAME      = TEME
TIME_SYSTEM    = UTC
MEAN_ELEMENT_THEORY = SGP/SGP4

EPOCH          = 2026-04-02T19:45:29.961216
MEAN_MOTION    = 14.59039398
ECCENTRICITY   = .0057748
INCLINATION    = 74.0045
RA_OF_ASC_NODE = 128.6334
ARG_OF_PERICENTER = 265.7085
MEAN_ANOMALY   = 93.7479

EPHEMERIS_TYPE = 0
CLASSIFICATION_TYPE = U
NORAD_CAT_ID   = 82432
ELEMENT_SET_NO = 999
REV_AT_EPOCH   = 49910
BSTAR          = .48039E-3
MEAN_MOTION_DOT = .2279E-4
MEAN_MOTION_DDOT = 0

CCSDS_OMM_VERS = 2.0
CREATION_DATE  = 
ORIGINATOR     = 

OBJECT_NAME    = UNKNOWN
OBJECT_ID      = 
CENTER_NAME    = EARTH
REF_FRAME      = TEME
TIME_SYSTEM    = UTC
MEAN_ELEMENT_THEORY = SGP/SGP4

EPOCH          = 2026-04-03T13:16:06.955392
MEAN_MOTION    = 15.05445152
ECCENTRICITY   = .0008204
INCLINATION    = 85.8728
RA_OF_ASC_NODE = 139.5343
ARG_OF_PERICENTER = 200.3922
MEAN_ANOMALY   = 159.6986

EPHEMERIS_TYPE = 0
CLASSIFICATION_TYPE = U
NORAD_CAT_ID   = 82448
ELEMENT_SET_NO = 999
REV_AT_EPOCH   = 45385
BSTAR          = .67107E-3
MEAN_MOTION_DOT = .9673E-4
MEAN_MOTION_DDOT = 0

CCSDS_OMM_VERS = 2.0
CREATION_DATE  = 
ORIGINATOR     = 

OBJECT_NAME    = UNKNOWN
OBJECT_ID      = 
CENTER_NAME    = EARTH
REF_FRAME      = TEME
TIME_SYSTEM    = UTC
MEAN_ELEMENT_THEORY = SGP/SGP4

EPOCH          = 2026-04-03T08:38:50.969760
MEAN_MOTION    = 12.39713430
ECCENTRICITY   = .0094095
INCLINATION    = 102.1968
RA_OF_ASC_NODE = 54.7304
ARG_OF_PERICENTER = 1.5838
MEAN_ANOMALY   = 358.5507

EPHEMERIS_TYPE = 0
CLASSIFICATION_TYPE = U
NORAD_CAT_ID   = 82453
ELEMENT_SET_NO = 999
REV_AT_EPOCH   = 55989
BSTAR          = .3827E-3
MEAN_MOTION_DOT = .6E-7
MEAN_MOTION_DDOT = 0

CCSDS_OMM_VERS = 2.0
CREATION_DATE  = 
ORIGINATOR     = 

OBJECT_NAME    = UNKNOWN
OBJECT_ID      = 
CENTER_NAME    = EARTH
REF_FRAME      = TEME
TIME_SYSTEM    = UTC
MEAN_ELEMENT_THEORY = SGP/SGP4

EPOCH          = 2026-04-02T19:16:13.574496
MEAN_MOTION    = 13.55845881
ECCENTRICITY   = .0043678
INCLINATION    = 99.3474
RA_OF_ASC_NODE = 113.6910
ARG_OF_PERICENTER = 272.4581
MEAN_ANOMALY   = 87.1557

EPHEMERIS_TYPE = 0
CLASSIFICATION_TYPE = U
NORAD_CAT_ID   = 82484
ELEMENT_SET_NO = 999
REV_AT_EPOCH   = 60568
BSTAR          = .41049E-3
MEAN_MOTION_DOT = .246E-5
MEAN_MOTION_DDOT = 0

CCSDS_OMM_VERS = 2.0
CREATION_DATE  = 
ORIGINATOR     = 

OBJECT_NAME    = UNKNOWN
OBJECT_ID      = 
CENTER_NAME    = EARTH
REF_FRAME      = TEME
TIME_SYSTEM    = UTC
MEAN_ELEMENT_THEORY = SGP/SGP4

EPOCH          = 2026-03-31T11:38:11.020128
MEAN_MOTION    = 14.90841589
ECCENTRICITY   = .0009199
INCLINATION    = 74.0064
RA_OF_ASC_NODE = 164.3852
ARG_OF_PERICENTER = 289.1635
MEAN_ANOMALY   = 70.8551

EPHEMERIS_TYPE = 0
CLASSIFICATION_TYPE = U
NORAD_CAT_ID   = 82494
ELEMENT_SET_NO = 999
REV_AT_EPOCH   = 10114
BSTAR          = .2146E-2
MEAN_MOTION_DOT = .21182E-3
MEAN_MOTION_DDOT = 0

CCSDS_OMM_VERS = 2.0
CREATION_DATE  = 
ORIGINATOR     = 

OBJECT_NAME    = UNKNOWN
OBJECT_ID      = 
CENTER_NAME    = EARTH
REF_FRAME      = TEME
TIME_SYSTEM    = UTC
MEAN_ELEMENT_THEORY = SGP/SGP4

EPOCH          = 2026-04-03T10:12:07.240320
MEAN_MOTION    = 14.19398416
ECCENTRICITY   = .0121438
INCLINATION    = 70.9640
RA_OF_ASC_NODE = 127.2948
ARG_OF_PERICENTER = 303.2612
MEAN_ANOMALY   = 55.6923

EPHEMERIS_TYPE = 0
CLASSIFICATION_TYPE = U
NORAD_CAT_ID   = 82500
ELEMENT_SET_NO = 999
REV_AT_EPOCH   = 63479
BSTAR          = .24184E-2
MEAN_MOTION_DOT = .5431E-4
MEAN_MOTION_DDOT = 0

