UNKNOWN                 
1 82303U          26092.47120699  .00039000  00000+0  29556-1 0  9992
2 82303  81.9382 267.0129 0035505 350.5360  39.2818 13.93329857529812
UNKNOWN                 
1 82311U          26092.39944891  .00000627  00000+0  93981-3 0  9998
2 82311  99.4197 146.1641 0107854  29.7745 330.9472 13.54695170565306
UNKNOWN                 
1 82363U          26092.36645732  .00000895  00000+0  15056-2 0  9997
2 82363  66.9378 317.0821 0451353  94.3601 270.9134 13.15728719304815
UNKNOWN                 
1 82369U          26092.30629333  .00000199  00000+0  16448-3 0  9990
2 82369  98.8933 109.0284 0083676  33.9984 326.6502 13.98236560572629
UNKNOWN                 
1 82381U          26093.09281438  .00050602  00000+0  55991-2 0  9990
2 82381  98.3892 328.5696 0008031 133.5860 226.6022 14.87113547527320
UNKNOWN                 
1 82402U          26093.45353630  .00011079  00000+0  77395-3 0  9996
2 82402  86.6581 107.2723 0009995 108.7035 251.5286 15.05186519471260
UNKNOWN                 
1 82432U          26092.82326344  .00002279  00000+0  48039-3 0  9996
2 82432  74.0045 128.6334 0057748 265.7085  93.7479 14.59039398499105
UNKNOWN                 
1 82448U          26093.55285828  .00009673  00000+0  67107-3 0  9997
2 82448  85.8728 139.5343 0008204 200.3922 159.6986 15.05445152453857
UNKNOWN                 
1 82453U          26093.36031215  .00000006  00000+0  38270-3 0  9991
2 82453 102.1968  54.7304 0094095   1.5838 358.5507 12.39713430559898
UNKNOWN                 
1 82484U          26092.80293489  .00000246  00000+0  41049-3 0  9990
2 82484  99.3474 113.6910 0043678 272.4581  87.1557 13.55845881605688
UNKNOWN                 
1 82494U          26090.48484977  .00021182  00000+0  21460-2 0  9993
2 82494  74.0064 164.3852 0009199 289.1635  70.8551 14.90841589101143
UNKNOWN                 
1 82500U          26093.42508380  .00005431  00000+0  24184-2 0  9998
2 82500  70.9640 127.2948 0121438 303.2612  55.6923 14.19398416634797
